SL-16 R/B               
1 25400U 98043G   25365.11132722  .00000153  00000+0  83001-4 0  9999
2 25400  98.8149 313.0345 0009275 208.1853 151.8825 14.26030597429216
SL-16 R/B               
1 25407U 98045B   25365.27076388  .00000091  00000+0  70111-4 0  9999
2 25407  71.0126 325.4556 0005760 145.5560 214.5938 14.16181448417418
ISS (ZARYA)             
1 25544U 98067A   25365.24252991  .00014700  00000+0  27461-3 0  9999
2 25544  51.6330  50.8452 0007496 322.9593  37.0877 15.48966283545720
CZ-4B R/B               
1 25732U 99025C   25365.16421187  .00000152  00000+0  94326-4 0  9990
2 25732  98.6742  46.0297 0037136 180.4854 249.0157 14.18248608378452
OKEAN-O                 
1 25860U 99039A   25365.17692684  .00001433  00000+0  19547-3 0  9994
2 25860  97.9577  60.7170 0001294 114.5325 245.6022 14.80197835424259
SL-16 R/B               
1 25861U 99039B   25365.28940328  .00001190  00000+0  15798-3 0  9992
2 25861  98.0100  59.4395 0015993 117.2711 243.0133 14.81617499426732
DELTA 2 R/B             
1 25876U 99041E   25365.05277140  .00003222  00000+0  55595-3 0  9998
2 25876  51.7593 215.3397 0504275 145.7402 217.7169 14.11463778353338
HELIOS 1B               
1 25977U 99064A   25365.30436458  .00003406  00000+0  38329-3 0  9992
2 25977  98.1753 260.5208 0000561  33.3359 326.7892 14.87367860675090
TERRA                   
1 25994U 99068A   25365.22842053  .00000897  00000+0  19229-3 0  9997
2 25994  97.9723  56.2320 0003207  57.0967  12.6688 14.60925745385080
SL-16 R/B               
1 26070U 00006B   25365.12708867  .00000337  00000+0  19551-3 0  9997
2 26070  71.0013 241.9971 0018707 283.8550  76.0492 14.15812639338851
TITAN 4B R/B            
1 26474U 00047B   25365.23778038  .00005733  00000+0  36472-3 0  9995
2 26474  67.9889 232.8989 0037698 121.9949 238.4873 15.08929459382584
ENVISAT                 
1 27386U 02009A   25364.37958830  .00000257  00000+0  97010-4 0  9994
2 27386  98.3625 314.6753 0001115  88.2338  83.3691 14.39006569249200
