CCSDS_OMM_VERS = 2.0
CREATION_DATE  = 
ORIGINATOR     = 

OBJECT_NAME    = SL-16 R/B
OBJECT_ID      = 1998-043G
CENTER_NAME    = EARTH
REF_FRAME      = TEME
TIME_SYSTEM    = UTC
MEAN_ELEMENT_THEORY = SGP/SGP4

EPOCH          = 2025-12-31T02:40:18.671808
MEAN_MOTION    = 14.26030597
ECCENTRICITY   = .0009275
INCLINATION    = 98.8149
RA_OF_ASC_NODE = 313.0345
ARG_OF_PERICENTER = 208.1853
MEAN_ANOMALY   = 151.8825

EPHEMERIS_TYPE = 0
CLASSIFICATION_TYPE = U
NORAD_CAT_ID   = 25400
ELEMENT_SET_NO = 999
REV_AT_EPOCH   = 42921
BSTAR          = .830007E-4
MEAN_MOTION_DOT = .153E-5
MEAN_MOTION_DDOT = 0

CCSDS_OMM_VERS = 2.0
CREATION_DATE  = 
ORIGINATOR     = 

OBJECT_NAME    = SL-16 R/B
OBJECT_ID      = 1998-045B
CENTER_NAME    = EARTH
REF_FRAME      = TEME
TIME_SYSTEM    = UTC
MEAN_ELEMENT_THEORY = SGP/SGP4

EPOCH          = 2025-12-31T06:29:53.999232
MEAN_MOTION    = 14.16181448
ECCENTRICITY   = .00057604
INCLINATION    = 71.0126
RA_OF_ASC_NODE = 325.4556
ARG_OF_PERICENTER = 145.5560
MEAN_ANOMALY   = 214.5938

EPHEMERIS_TYPE = 0
CLASSIFICATION_TYPE = U
NORAD_CAT_ID   = 25407
ELEMENT_SET_NO = 999
REV_AT_EPOCH   = 41741
BSTAR          = .70111324E-4
MEAN_MOTION_DOT = .91E-6
MEAN_MOTION_DDOT = 0

CCSDS_OMM_VERS = 2.0
CREATION_DATE  = 
ORIGINATOR     = 

OBJECT_NAME    = ISS (ZARYA)
OBJECT_ID      = 1998-067A
CENTER_NAME    = EARTH
REF_FRAME      = TEME
TIME_SYSTEM    = UTC
MEAN_ELEMENT_THEORY = SGP/SGP4

EPOCH          = 2025-12-31T05:49:14.584224
MEAN_MOTION    = 15.48966283
ECCENTRICITY   = .00074963
INCLINATION    = 51.6330
RA_OF_ASC_NODE = 50.8452
ARG_OF_PERICENTER = 322.9593
MEAN_ANOMALY   = 37.0877

EPHEMERIS_TYPE = 0
CLASSIFICATION_TYPE = U
NORAD_CAT_ID   = 25544
ELEMENT_SET_NO = 999
REV_AT_EPOCH   = 54572
BSTAR          = .274611E-3
MEAN_MOTION_DOT = .147E-3
MEAN_MOTION_DDOT = 0

CCSDS_OMM_VERS = 2.0
CREATION_DATE  = 
ORIGINATOR     = 

OBJECT_NAME    = CZ-4B R/B
OBJECT_ID      = 1999-025C
CENTER_NAME    = EARTH
REF_FRAME      = TEME
TIME_SYSTEM    = UTC
MEAN_ELEMENT_THEORY = SGP/SGP4

EPOCH          = 2025-12-31T03:56:27.905568
MEAN_MOTION    = 14.18248608
ECCENTRICITY   = .00371369
INCLINATION    = 98.6742
RA_OF_ASC_NODE = 46.0297
ARG_OF_PERICENTER = 180.4854
MEAN_ANOMALY   = 249.0157

EPHEMERIS_TYPE = 0
CLASSIFICATION_TYPE = U
NORAD_CAT_ID   = 25732
ELEMENT_SET_NO = 999
REV_AT_EPOCH   = 37845
BSTAR          = .94325952E-4
MEAN_MOTION_DOT = .152E-5
MEAN_MOTION_DDOT = 0

CCSDS_OMM_VERS = 2.0
CREATION_DATE  = 
ORIGINATOR     = 

OBJECT_NAME    = OKEAN-O
OBJECT_ID      = 1999-039A
CENTER_NAME    = EARTH
REF_FRAME      = TEME
TIME_SYSTEM    = UTC
MEAN_ELEMENT_THEORY = SGP/SGP4

EPOCH          = 2025-12-31T04:14:46.478976
MEAN_MOTION    = 14.80197835
ECCENTRICITY   = .00012947
INCLINATION    = 97.9577
RA_OF_ASC_NODE = 60.7170
ARG_OF_PERICENTER = 114.5325
MEAN_ANOMALY   = 245.6022

EPHEMERIS_TYPE = 0
CLASSIFICATION_TYPE = U
NORAD_CAT_ID   = 25860
ELEMENT_SET_NO = 999
REV_AT_EPOCH   = 42425
BSTAR          = .19546734E-3
MEAN_MOTION_DOT = .1433E-4
MEAN_MOTION_DDOT = 0

CCSDS_OMM_VERS = 2.0
CREATION_DATE  = 
ORIGINATOR     = 

OBJECT_NAME    = SL-16 R/B
OBJECT_ID      = 1999-039B
CENTER_NAME    = EARTH
REF_FRAME      = TEME
TIME_SYSTEM    = UTC
MEAN_ELEMENT_THEORY = SGP/SGP4

EPOCH          = 2025-12-31T06:56:44.443392
MEAN_MOTION    = 14.81617499
ECCENTRICITY   = .00159934
INCLINATION    = 98.0100
RA_OF_ASC_NODE = 59.4395
ARG_OF_PERICENTER = 117.2711
MEAN_ANOMALY   = 243.0133

EPHEMERIS_TYPE = 0
CLASSIFICATION_TYPE = U
NORAD_CAT_ID   = 25861
ELEMENT_SET_NO = 999
REV_AT_EPOCH   = 42673
BSTAR          = .15798466E-3
MEAN_MOTION_DOT = .119E-4
MEAN_MOTION_DDOT = 0

CCSDS_OMM_VERS = 2.0
CREATION_DATE  = 
ORIGINATOR     = 

OBJECT_NAME    = DELTA 2 R/B
OBJECT_ID      = 1999-041E
CENTER_NAME    = EARTH
REF_FRAME      = TEME
TIME_SYSTEM    = UTC
MEAN_ELEMENT_THEORY = SGP/SGP4

EPOCH          = 2025-12-31T01:15:59.448960
MEAN_MOTION    = 14.11463778
ECCENTRICITY   = .05042751
INCLINATION    = 51.7593
RA_OF_ASC_NODE = 215.3397
ARG_OF_PERICENTER = 145.7402
MEAN_ANOMALY   = 217.7169

EPHEMERIS_TYPE = 0
CLASSIFICATION_TYPE = U
NORAD_CAT_ID   = 25876
ELEMENT_SET_NO = 999
REV_AT_EPOCH   = 35333
BSTAR          = .55594763E-3
MEAN_MOTION_DOT = .3222E-4
MEAN_MOTION_DDOT = 0

CCSDS_OMM_VERS = 2.0
CREATION_DATE  = 
ORIGINATOR     = 

OBJECT_NAME    = HELIOS 1B
OBJECT_ID      = 1999-064A
CENTER_NAME    = EARTH
REF_FRAME      = TEME
TIME_SYSTEM    = UTC
MEAN_ELEMENT_THEORY = SGP/SGP4

EPOCH          = 2025-12-31T07:18:17.099712
MEAN_MOTION    = 14.87367860
ECCENTRICITY   = .00005615
INCLINATION    = 98.1753
RA_OF_ASC_NODE = 260.5208
ARG_OF_PERICENTER = 33.3359
MEAN_ANOMALY   = 326.7892

EPHEMERIS_TYPE = 0
CLASSIFICATION_TYPE = U
NORAD_CAT_ID   = 25977
ELEMENT_SET_NO = 999
REV_AT_EPOCH   = 67509
BSTAR          = .38328736E-3
MEAN_MOTION_DOT = .3406E-4
MEAN_MOTION_DDOT = 0

CCSDS_OMM_VERS = 2.0
CREATION_DATE  = 
ORIGINATOR     = 

OBJECT_NAME    = TERRA
OBJECT_ID      = 1999-068A
CENTER_NAME    = EARTH
REF_FRAME      = TEME
TIME_SYSTEM    = UTC
MEAN_ELEMENT_THEORY = SGP/SGP4

EPOCH          = 2025-12-31T05:28:55.533792
MEAN_MOTION    = 14.60925745
ECCENTRICITY   = .00032079
INCLINATION    = 97.9723
RA_OF_ASC_NODE = 56.2320
ARG_OF_PERICENTER = 57.0967
MEAN_ANOMALY   = 12.6688

EPHEMERIS_TYPE = 0
CLASSIFICATION_TYPE = U
NORAD_CAT_ID   = 25994
ELEMENT_SET_NO = 999
REV_AT_EPOCH   = 38508
BSTAR          = .19229103E-3
MEAN_MOTION_DOT = .897E-5
MEAN_MOTION_DDOT = 0

CCSDS_OMM_VERS = 2.0
CREATION_DATE  = 
ORIGINATOR     = 

OBJECT_NAME    = SL-16 R/B
OBJECT_ID      = 2000-006B
CENTER_NAME    = EARTH
REF_FRAME      = TEME
TIME_SYSTEM    = UTC
MEAN_ELEMENT_THEORY = SGP/SGP4

EPOCH          = 2025-12-31T03:03:00.461088
MEAN_MOTION    = 14.15812639
ECCENTRICITY   = .00187076
INCLINATION    = 71.0013
RA_OF_ASC_NODE = 241.9971
ARG_OF_PERICENTER = 283.8550
MEAN_ANOMALY   = 76.0492

EPHEMERIS_TYPE = 0
CLASSIFICATION_TYPE = U
NORAD_CAT_ID   = 26070
ELEMENT_SET_NO = 999
REV_AT_EPOCH   = 33885
BSTAR          = .19550741E-3
MEAN_MOTION_DOT = .337E-5
MEAN_MOTION_DDOT = 0

CCSDS_OMM_VERS = 2.0
CREATION_DATE  = 
ORIGINATOR     = 

OBJECT_NAME    = TITAN 4B R/B
OBJECT_ID      = 2000-047B
CENTER_NAME    = EARTH
REF_FRAME      = TEME
TIME_SYSTEM    = UTC
MEAN_ELEMENT_THEORY = SGP/SGP4

EPOCH          = 2025-12-31T05:42:24.224832
MEAN_MOTION    = 15.08929459
ECCENTRICITY   = .00376983
INCLINATION    = 67.9889
RA_OF_ASC_NODE = 232.8989
ARG_OF_PERICENTER = 121.9949
MEAN_ANOMALY   = 238.4873

EPHEMERIS_TYPE = 0
CLASSIFICATION_TYPE = U
NORAD_CAT_ID   = 26474
ELEMENT_SET_NO = 999
REV_AT_EPOCH   = 38258
BSTAR          = .36471716E-3
MEAN_MOTION_DOT = .5733E-4
MEAN_MOTION_DDOT = 0

CCSDS_OMM_VERS = 2.0
CREATION_DATE  = 
ORIGINATOR     = 

OBJECT_NAME    = ENVISAT
OBJECT_ID      = 2002-009A
CENTER_NAME    = EARTH
REF_FRAME      = TEME
TIME_SYSTEM    = UTC
MEAN_ELEMENT_THEORY = SGP/SGP4

EPOCH          = 2025-12-30T09:06:36.429120
MEAN_MOTION    = 14.39006569
ECCENTRICITY   = .00011154
INCLINATION    = 98.3625
RA_OF_ASC_NODE = 314.6753
ARG_OF_PERICENTER = 88.2338
MEAN_ANOMALY   = 83.3691

EPHEMERIS_TYPE = 0
CLASSIFICATION_TYPE = U
NORAD_CAT_ID   = 27386
ELEMENT_SET_NO = 999
REV_AT_EPOCH   = 24920
BSTAR          = .97009711E-4
MEAN_MOTION_DOT = .257E-5
MEAN_MOTION_DDOT = 0

